{
    "links": {
        "self": "http://www.neowsapp.com/rest/v1/neo/3802429?api_key=iIulBulltgU6a56xZRHN4H3l9WmuAYTsLGpBGhQ2"
    },
    "id": "3802429",
    "neo_reference_id": "3802429",
    "name": "(2018 GU1)",
    "designation": "2018 GU1",
    "nasa_jpl_url": "http://ssd.jpl.nasa.gov/sbdb.cgi?sstr=3802429",
    "absolute_magnitude_h": 24.3,
    "estimated_diameter": {
        "kilometers": {
            "estimated_diameter_min": 0.0366906138,
            "estimated_diameter_max": 0.0820427065
        },
        "meters": {
            "estimated_diameter_min": 36.6906137531,
            "estimated_diameter_max": 82.0427064882
        },
        "miles": {
            "estimated_diameter_min": 0.0227984834,
            "estimated_diameter_max": 0.0509789586
        },
        "feet": {
            "estimated_diameter_min": 120.3760332259,
            "estimated_diameter_max": 269.1689931548
        }
    },
    "is_potentially_hazardous_asteroid": false,
    "close_approach_data": [
        {
            "close_approach_date": "2016-04-27",
            "close_approach_date_full": "2016-Apr-27 11:14",
            "epoch_date_close_approach": 1461755640000,
            "relative_velocity": {
                "kilometers_per_second": "21.9184232416",
                "kilometers_per_hour": "78906.3236697452",
                "miles_per_hour": "49029.3209491259"
            },
            "miss_distance": {
                "astronomical": "0.3268839823",
                "lunar": "127.1578691147",
                "kilometers": "48901147.489197701",
                "miles": "30385764.0431862338"
            },
            "orbiting_body": "Earth"
        },
        {
            "close_approach_date": "2018-04-08",
            "close_approach_date_full": "2018-Apr-08 07:20",
            "epoch_date_close_approach": 1523172000000,
            "relative_velocity": {
                "kilometers_per_second": "15.2889530371",
                "kilometers_per_hour": "55040.2309336669",
                "miles_per_hour": "34199.8590487554"
            },
            "miss_distance": {
                "astronomical": "0.004368729",
                "lunar": "1.699435581",
                "kilometers": "653552.55300723",
                "miles": "406098.725390574"
            },
            "orbiting_body": "Earth"
        },
        {
            "close_approach_date": "2018-04-08",
            "close_approach_date_full": "2018-Apr-08 07:49",
            "epoch_date_close_approach": 1523173740000,
            "relative_velocity": {
                "kilometers_per_second": "15.8582058428",
                "kilometers_per_hour": "57089.5410341678",
                "miles_per_hour": "35473.2206498139"
            },
            "miss_distance": {
                "astronomical": "0.0026522195",
                "lunar": "1.0317133855",
                "kilometers": "396766.387972465",
                "miles": "246539.201311417"
            },
            "orbiting_body": "Moon"
        },
        {
            "close_approach_date": "2019-12-09",
            "close_approach_date_full": "2019-Dec-09 07:16",
            "epoch_date_close_approach": 1575875760000,
            "relative_velocity": {
                "kilometers_per_second": "13.8543645733",
                "kilometers_per_hour": "49875.7124638606",
                "miles_per_hour": "30990.8281140027"
            },
            "miss_distance": {
                "astronomical": "0.4020509963",
                "lunar": "156.3978375607",
                "kilometers": "60145972.677857881",
                "miles": "37372974.4141695178"
            },
            "orbiting_body": "Earth"
        }
    ],
    "orbital_data": {
        "orbit_id": "6",
        "orbit_determination_date": "2018-04-18 06:25:05",
        "first_observation_date": "2018-04-10",
        "last_observation_date": "2018-04-17",
        "data_arc_in_days": 7,
        "observations_used": 64,
        "orbit_uncertainty": "7",
        "minimum_orbit_intersection": ".00221776",
        "jupiter_tisserand_invariant": "4.273",
        "epoch_osculation": "2459000.5",
        "eccentricity": ".4162752176919718",
        "semi_major_axis": "1.548512969213153",
        "inclination": "23.09698352610983",
        "ascending_node_longitude": "198.5477526320451",
        "orbital_period": "703.8347374385951",
        "perihelion_distance": ".903905395855106",
        "perihelion_argument": "311.3289977204219",
        "aphelion_distance": "2.193120542571199",
        "perihelion_time": "2458882.452694675388",
        "mean_anomaly": "60.379273224729",
        "mean_motion": ".5114837061184517",
        "equinox": "J2000",
        "orbit_class": {
            "orbit_class_type": "APO",
            "orbit_class_description": "Near-Earth asteroid orbits which cross the Earth’s orbit similar to that of 1862 Apollo",
            "orbit_class_range": "a (semi-major axis) > 1.0 AU; q (perihelion) < 1.017 AU"
        }
    },
    "is_sentry_object": false
}